{
  "type": "FeatureCollection",
  "features": [
    {
      "type": "Feature",
      "properties": {
        "norad_id": 30350,
        "name": "FENGYUN 1C DEB",
        "group": "fengyun-1c-debris",
        "lat": -28.891844772223294,
        "lon": 174.53404366510307,
        "alt_km": 831.5774229620656,
        "timestamp": "2025-12-18T10:51:26.082479+00:00",
        "meta_object_name": "FENGYUN 1C DEB",
        "meta_object_id": "1999-025ABM",
        "meta_epoch": "2025-12-17T10:49:24.461184",
        "meta_mean_motion": 13.82822682,
        "meta_eccentricity": 0.02192911,
        "meta_inclination": 98.0926,
        "meta_ra_of_asc_node": 169.1689,
        "meta_arg_of_pericenter": 295.6998,
        "meta_mean_anomaly": 91.2599,
        "meta_ephemeris_type": 0,
        "meta_classification_type": "U",
        "meta_norad_cat_id": 30350,
        "meta_element_set_no": 999,
        "meta_rev_at_epoch": 95047,
        "meta_bstar": 0.00068627096,
        "meta_mean_motion_dot": 8.62e-06,
        "meta_mean_motion_ddot": 0,
        "tle_line1": "1 30350U 99025ABM 25351.45097756  .00000862  00000+0  68627-3 0  9992",
        "tle_line2": "2 30350  98.0926 169.1689 0219291 295.6998  91.2599 13.82822682950471"
      },
      "geometry": {
        "type": "Point",
        "coordinates": [
          174.53404366510307,
          -28.891844772223294
        ]
      }
    },
    {
      "type": "Feature",
      "properties": {
        "norad_id": 30352,
        "name": "FENGYUN 1C DEB",
        "group": "fengyun-1c-debris",
        "lat": 30.23928493643615,
        "lon": 8.201082692475788,
        "alt_km": 865.2192727899055,
        "timestamp": "2025-12-18T10:51:26.082490+00:00",
        "meta_object_name": "FENGYUN 1C DEB",
        "meta_object_id": "1999-025ABP",
        "meta_epoch": "2025-12-17T20:12:32.649984",
        "meta_mean_motion": 14.07587941,
        "meta_eccentricity": 0.00276993,
        "meta_inclination": 98.7639,
        "meta_ra_of_asc_node": 12.7682,
        "meta_arg_of_pericenter": 304.5066,
        "meta_mean_anomaly": 234.8369,
        "meta_ephemeris_type": 0,
        "meta_classification_type": "U",
        "meta_norad_cat_id": 30352,
        "meta_element_set_no": 999,
        "meta_rev_at_epoch": 96982,
        "meta_bstar": 0.00012262348,
        "meta_mean_motion_dot": 1.65e-06,
        "meta_mean_motion_ddot": 0,
        "tle_line1": "1 30352U 99025ABP 25351.84204456  .00000165  00000+0  12262-3 0  9994",
        "tle_line2": "2 30352  98.7639  12.7682 0027699 304.5066 234.8369 14.07587941969825"
      },
      "geometry": {
        "type": "Point",
        "coordinates": [
          8.201082692475788,
          30.23928493643615
        ]
      }
    },
    {
      "type": "Feature",
      "properties": {
        "norad_id": 30355,
        "name": "FENGYUN 1C DEB",
        "group": "fengyun-1c-debris",
        "lat": -69.76293126145019,
        "lon": 152.4234773891985,
        "alt_km": 807.7263737491849,
        "timestamp": "2025-12-18T10:51:26.082502+00:00",
        "meta_object_name": "FENGYUN 1C DEB",
        "meta_object_id": "1999-025ABS",
        "meta_epoch": "2025-12-17T13:57:01.259712",
        "meta_mean_motion": 14.18833339,
        "meta_eccentricity": 0.00530374,
        "meta_inclination": 98.5886,
        "meta_ra_of_asc_node": 355.7805,
        "meta_arg_of_pericenter": 295.3554,
        "meta_mean_anomaly": 189.6125,
        "meta_ephemeris_type": 0,
        "meta_classification_type": "U",
        "meta_norad_cat_id": 30355,
        "meta_element_set_no": 999,
        "meta_rev_at_epoch": 97419,
        "meta_bstar": 0.00055154411,
        "meta_mean_motion_dot": 1.121e-05,
        "meta_mean_motion_ddot": 0,
        "tle_line1": "1 30355U 99025ABS 25351.58126458  .00001121  00000+0  55154-3 0  9993",
        "tle_line2": "2 30355  98.5886 355.7805 0053037 295.3554 189.6125 14.18833339974191"
      },
      "geometry": {
        "type": "Point",
        "coordinates": [
          152.4234773891985,
          -69.76293126145019
        ]
      }
    },
    {
      "type": "Feature",
      "properties": {
        "norad_id": 30356,
        "name": "FENGYUN 1C DEB",
        "group": "fengyun-1c-debris",
        "lat": -64.76100851172143,
        "lon": 6.43242522021827,
        "alt_km": 821.0747502735885,
        "timestamp": "2025-12-18T10:51:26.082513+00:00",
        "meta_object_name": "FENGYUN 1C DEB",
        "meta_object_id": "1999-025ABT",
        "meta_epoch": "2025-12-17T21:51:42.804576",
        "meta_mean_motion": 14.13049054,
        "meta_eccentricity": 0.0052027,
        "meta_inclination": 98.6812,
        "meta_ra_of_asc_node": 346.9959,
        "meta_arg_of_pericenter": 274.0853,
        "meta_mean_anomaly": 146.6213,
        "meta_ephemeris_type": 0,
        "meta_classification_type": "U",
        "meta_norad_cat_id": 30356,
        "meta_element_set_no": 999,
        "meta_rev_at_epoch": 97094,
        "meta_bstar": 0.00060569693,
        "meta_mean_motion_dot": 1.102e-05,
        "meta_mean_motion_ddot": 0,
        "tle_line1": "1 30356U 99025ABT 25351.91091209  .00001102  00000+0  60570-3 0  9993",
        "tle_line2": "2 30356  98.6812 346.9959 0052027 274.0853 146.6213 14.13049054970946"
      },
      "geometry": {
        "type": "Point",
        "coordinates": [
          6.43242522021827,
          -64.76100851172143
        ]
      }
    },
    {
      "type": "Feature",
      "properties": {
        "norad_id": 30357,
        "name": "FENGYUN 1C DEB",
        "group": "fengyun-1c-debris",
        "lat": -39.1067841690781,
        "lon": 26.774210756499976,
        "alt_km": 846.9256578769264,
        "timestamp": "2025-12-18T10:51:26.082524+00:00",
        "meta_object_name": "FENGYUN 1C DEB",
        "meta_object_id": "1999-025ABU",
        "meta_epoch": "2025-12-17T15:07:45.892992",
        "meta_mean_motion": 14.05263965,
        "meta_eccentricity": 0.00486912,
        "meta_inclination": 98.8056,
        "meta_ra_of_asc_node": 18.7376,
        "meta_arg_of_pericenter": 316.2669,
        "meta_mean_anomaly": 167.984,
        "meta_ephemeris_type": 0,
        "meta_classification_type": "U",
        "meta_norad_cat_id": 30357,
        "meta_element_set_no": 999,
        "meta_rev_at_epoch": 96875,
        "meta_bstar": 5.2975667e-05,
        "meta_mean_motion_dot": 4.3e-07,
        "meta_mean_motion_ddot": 0,
        "tle_line1": "1 30357U 99025ABU 25351.63039228  .00000043  00000+0  52976-4 0  9991",
        "tle_line2": "2 30357  98.8056  18.7376 0048691 316.2669 167.9840 14.05263965968750"
      },
      "geometry": {
        "type": "Point",
        "coordinates": [
          26.774210756499976,
          -39.1067841690781
        ]
      }
    },
    {
      "type": "Feature",
      "properties": {
        "norad_id": 30358,
        "name": "FENGYUN 1C DEB",
        "group": "fengyun-1c-debris",
        "lat": -50.07749427884748,
        "lon": -168.25366302658648,
        "alt_km": 864.6586424988136,
        "timestamp": "2025-12-18T10:51:26.082535+00:00",
        "meta_object_name": "FENGYUN 1C DEB",
        "meta_object_id": "1999-025ABV",
        "meta_epoch": "2025-12-17T11:44:22.000992",
        "meta_mean_motion": 14.20703093,
        "meta_eccentricity": 0.00825856,
        "meta_inclination": 98.5537,
        "meta_ra_of_asc_node": 180.4526,
        "meta_arg_of_pericenter": 185.7784,
        "meta_mean_anomaly": 238.9319,
        "meta_ephemeris_type": 0,
        "meta_classification_type": "U",
        "meta_norad_cat_id": 30358,
        "meta_element_set_no": 999,
        "meta_rev_at_epoch": 96985,
        "meta_bstar": 0.0013154462,
        "meta_mean_motion_dot": 2.893e-05,
        "meta_mean_motion_ddot": 0,
        "tle_line1": "1 30358U 99025ABV 25351.48914353  .00002893  00000+0  13154-2 0  9994",
        "tle_line2": "2 30358  98.5537 180.4526 0082585 185.7784 238.9319 14.20703093969853"
      },
      "geometry": {
        "type": "Point",
        "coordinates": [
          -168.25366302658648,
          -50.07749427884748
        ]
      }
    },
    {
      "type": "Feature",
      "properties": {
        "norad_id": 30359,
        "name": "FENGYUN 1C DEB",
        "group": "fengyun-1c-debris",
        "lat": 35.68010874254946,
        "lon": 8.11588542184434,
        "alt_km": 1017.5940703991137,
        "timestamp": "2025-12-18T10:51:26.082545+00:00",
        "meta_object_name": "FENGYUN 1C DEB",
        "meta_object_id": "1999-025ABW",
        "meta_epoch": "2025-12-17T18:39:58.820832",
        "meta_mean_motion": 13.94034199,
        "meta_eccentricity": 0.01454904,
        "meta_inclination": 101.6261,
        "meta_ra_of_asc_node": 178.7682,
        "meta_arg_of_pericenter": 330.0618,
        "meta_mean_anomaly": 29.2272,
        "meta_ephemeris_type": 0,
        "meta_classification_type": "U",
        "meta_norad_cat_id": 30359,
        "meta_element_set_no": 999,
        "meta_rev_at_epoch": 95139,
        "meta_bstar": 0.0020549198,
        "meta_mean_motion_dot": 2.904e-05,
        "meta_mean_motion_ddot": 0,
        "tle_line1": "1 30359U 99025ABW 25351.77776413  .00002904  00000+0  20549-2 0  9999",
        "tle_line2": "2 30359 101.6261 178.7682 0145490 330.0618  29.2272 13.94034199951396"
      },
      "geometry": {
        "type": "Point",
        "coordinates": [
          8.11588542184434,
          35.68010874254946
        ]
      }
    }
  ]
}